OBJECT_NAME,OBJECT_ID,EPOCH,MEAN_MOTION,ECCENTRICITY,INCLINATION,RA_OF_ASC_NODE,ARG_OF_PERICENTER,MEAN_ANOMALY,EPHEMERIS_TYPE,CLASSIFICATION_TYPE,NORAD_CAT_ID,ELEMENT_SET_NO,REV_AT_EPOCH,BSTAR,MEAN_MOTION_DOT,MEAN_MOTION_DDOT
LEMUR-2-STAR-FOX,2025-009CR,2026-06-04T04:07:48.018720,15.02293769,.00024641,97.6940,236.8765,148.1921,211.9453,0,U,62696,999,7560,.71552458E-3,.9396E-4,0
LEMUR-2-ARIANNA,2025-009CU,2026-06-04T04:05:10.292928,15.02275535,.000278,97.6880,236.6595,156.9778,203.1572,0,U,62699,999,7560,.78729078E-3,.10341E-3,0
LEMUR-2-ALISIA,2025-009DB,2026-06-04T05:12:52.117632,15.02572183,.00004843,97.6973,237.4752,195.6925,164.4285,0,U,62706,999,9821,.71175662E-3,.9415E-4,0
LEMUR-2-ROUNDTRIPPER,2025-009DG,2026-06-04T04:24:59.435136,15.03559606,.00041072,97.7228,237.8844,173.7535,186.3743,0,U,62711,999,7567,.75495807E-3,.10258E-3,0
LEMUR-2-MYNAMEISJEFF,2025-009DH,2026-06-04T10:46:11.062560,15.03581129,.00024327,97.7280,238.5214,203.8502,156.2611,0,U,62712,999,7571,.79556037E-3,.10819E-3,0
LEMUR-2-LEIA-PHILIP,2025-052AN,2026-06-04T05:43:37.969824,14.97273900,.00021933,97.6838,47.4066,270.2468,89.8503,0,U,63246,999,6673,.19224473E-3,.217E-4,0
LEMUR-2-LIA-MARTIN,2025-052AQ,2026-06-04T21:58:36.124896,14.97690281,.00020297,97.6899,48.5290,186.5979,173.5217,0,U,63248,999,6684,.55878537E-3,.649E-4,0
LEMUR-2-DELOITTE-1,2025-052BB,2026-06-04T16:33:36.485568,14.97506873,.0002117,97.6922,48.6365,118.0645,242.0792,0,U,63259,999,6682,.38754703E-3,.4461E-4,0
LEMUR-2-EMERSONROSE,2025-052BD,2026-06-04T16:15:38.827008,14.98995914,.00028667,97.6915,49.1587,79.0066,281.1480,0,U,63261,999,6686,.33451308E-3,.3995E-4,0
LEMUR-2-MARACHE-FRAN,2025-052BE,2026-06-04T22:16:21.055008,14.99963161,.00064034,97.6940,49.6956,61.2484,298.9382,0,U,63262,999,6692,.60859488E-3,.7509E-4,0
LEMUR-2-THEFALCONER,2025-052BG,2026-06-04T15:32:53.289600,14.97297056,.0003586,97.6871,48.2275,67.2356,292.9244,0,U,63264,999,6681,.45492084E-3,.5219E-4,0
LEMUR-2-UNTITLED-SC,2025-061A,2026-06-04T20:34:12.124992,15.13385500,.00173658,97.5635,131.3103,311.5939,48.3803,0,U,63351,999,6572,.24193241E-3,.4265E-4,0
LEMUR-2-ESPERANZA,2025-061B,2026-06-03T10:43:03.263520,15.13467094,.00170388,97.5640,130.0007,316.2764,43.7116,0,U,63352,999,6551,.21282038E-3,.3752E-4,0
LEMUR-2-KREMPEL-BRO2,2025-061C,2026-06-04T17:35:58.229376,15.13910230,.00177153,97.5689,131.7954,303.1121,56.8409,0,U,63353,999,6572,.26295906E-3,.4712E-4,0
LEMUR-2-THERMORAPTOR,2025-061D,2026-06-03T23:44:10.030272,15.13981450,.00173672,97.5694,131.1285,304.9847,54.9753,0,U,63354,999,6561,.24288575E-3,.4355E-4,0
LEMUR-2-NEUROSPICY,2025-061E,2026-06-04T18:06:48.678048,15.14101189,.00152305,97.5618,131.5256,306.2312,53.7511,0,U,63355,999,6573,.27702457E-3,.499E-4,0
LEMUR-2-TILLINFINITY,2025-061F,2026-06-04T17:29:22.704000,15.14689557,.00162768,97.5605,131.7817,293.0371,66.9144,0,U,63356,999,6575,.25097754E-3,.4592E-4,0
LEMUR-2-KREMPEL-BRO1,2025-061G,2026-06-04T04:07:44.311296,15.14489279,.00170332,97.5605,131.1482,296.4114,63.5370,0,U,63357,999,6566,.23409336E-3,.4255E-4,0
LEMUR-2-LANGER2SPACE,2025-061H,2026-06-04T17:23:27.115296,15.14192718,.00151861,97.5614,131.5162,304.7826,55.1975,0,U,63358,999,6573,.24221637E-3,.4365E-4,0
LEMUR-2-BALTO,2025-052BH,2026-06-04T15:29:49.599744,14.99945620,.00063217,97.6878,49.4042,89.4139,270.7809,0,U,63395,999,6688,.54129732E-3,.6668E-4,0
LEMUR-2-KRISH,2025-135AK,2026-06-04T21:39:13.264704,14.96087490,.000116,97.7731,270.8661,99.3361,260.7991,0,U,64561,999,5208,.50651902E-3,.5638E-4,0
LEMUR-2-HUBBLE-4,2025-135AP,2026-06-04T20:57:14.211360,14.93163815,.00019165,97.7690,269.9300,13.3133,346.8136,0,U,64565,999,5203,.24045366E-3,.2453E-4,0
LEMUR-2-SEJONG-2,2025-135BL,2026-06-04T22:28:19.756128,14.96595366,.00047759,97.7682,271.0428,30.0170,330.1325,0,U,64586,999,5211,.56460841E-3,.6375E-4,0
LEMUR-2-HUBBLE-5,2025-135BT,2026-06-04T15:12:53.542656,14.94095803,.00061141,97.7708,270.3068,33.7380,326.4228,0,U,64840,999,5203,.15086452E-3,.1555E-4,0
LEMUR-2-KARENDARRELL,2025-135BU,2026-06-04T13:51:09.792288,14.99921032,.00088421,97.7677,271.8096,251.4647,108.5616,0,U,64841,999,5212,.72189816E-3,.8912E-4,0
LEMUR-2-LUCILLE-ROSE,2025-135BV,2026-06-04T13:13:59.701152,14.99981500,.0010646,97.7773,271.7861,332.2747,27.7907,0,U,65403,999,4674,.67402947E-3,.8332E-4,0
LEMUR-2-AFFIE-WAUWIE,2025-248C,2026-06-01T11:37:59.795904,15.26700156,.00096998,45.3867,200.0340,347.2049,12.8593,0,U,66295,999,3219,.59909021E-3,.15776E-3,0
LEMUR-2-DEANANDMAEVE,2025-276N,2026-06-04T17:42:46.064160,15.19573072,.00067815,97.4216,229.4227,53.1081,307.0774,0,U,66678,999,2852,.38391433E-3,.8107E-4,0
LEMUR-2-STAS-GORBUK,2025-276W,2026-06-04T16:24:47.212128,15.19241574,.00062818,97.4245,229.4241,53.7247,306.4567,0,U,66686,999,2851,.34337131E-3,.7173E-4,0
